*******************************************************************************
Ephemeris / WWW_USER Mon Jul 15 19:11:57 2024 Pasadena, USA      / Horizons    
*******************************************************************************
Target body name: (2018 VS1)                      {source: JPL#4}
Center body name: Earth (399)                     {source: DE441}
Center-site name: Gemini South Obs., Cerro Pachon
*******************************************************************************
Start time      : A.D. 2019-Jan-27 23:53:00.0000 UT      
Stop  time      : A.D. 2019-Jan-28 09:58:00.0000 UT      
Step-size       : 1 minutes
*******************************************************************************
Target pole/equ : undefined
Target radii    : undefined                                                    
Center geodetic : 289.2634, -30.2406227, 2.71233  {E-lon(deg),Lat(deg),Alt(km)}
Center cylindric: 289.2634,5517.21435,-3194.81213 {E-lon(deg),Dxy(km),Dz(km)}
Center pole/equ : ITRF93                          {East-longitude positive}
Center radii    : 6378.137, 6378.137, 6356.752 km {Equator_a, b, pole_c}       
Target primary  : Sun
Vis. interferer : MOON (R_eq= 1737.400) km        {source: DE441}
Rel. light bend : Sun                             {source: DE441}
Rel. lght bnd GM: 1.3271E+11 km^3/s^2                                          
Small-body perts: Yes                             {source: SB441-N16}
Atmos refraction: NO (AIRLESS)
RA format       : HMS
Time format     : CAL 
Calendar mode   : Mixed Julian/Gregorian
RTS-only print  : NO       
EOP file        : eop.240715.p241008                                           
EOP coverage    : DATA-BASED 1962-JAN-20 TO 2024-JUL-15. PREDICTS-> 2024-OCT-07
Units conversion: 1 au= 149597870.700 km, c= 299792.458 km/s, 1 day= 86400.0 s 
Table cut-offs 1: Elevation (-90.0deg=NO ),Airmass (>38.000=NO), Daylight (YES)
Table cut-offs 2: Solar elongation (  0.0,180.0=NO ),Local Hour Angle( 0.0=NO )
Table cut-offs 3: RA/DEC angular rate (     0.0=NO )                           
*******************************************************************************
Initial IAU76/J2000 heliocentric ecliptic osculating elements (au, days, deg.):
  EPOCH=  2458427.5 ! 2018-Nov-05.00 (TDB)         Residual RMS= .21634        
   EC= .3907275528854954   QR= .7806320880190512   TP= 2458486.1030618688      
   OM= 55.95483604725189   W=  67.17004921097404   IN= 3.601110299269385       
  Equivalent ICRF heliocentric cartesian coordinates (au, au/d):
   X= 7.595935200506908E-01  Y= 6.354459268576240E-01  Z= 2.586666727482118E-01
  VX=-1.643099138746886E-02 VY= 7.530892270769961E-03 VZ= 4.533522122669557E-03
Asteroid physical parameters (km, seconds, rotational period in hours):        
   GM= n.a.                RAD= n.a.               ROTPER= n.a.                
   H= 26.6                 G= .150                 B-V= n.a.                   
                           ALBEDO= n.a.            STYP= n.a.                  
*******************************************************************************
 Date__(UT)__HR:MN     R.A._________(ICRF)_________DEC
******************************************************
$$SOE
 2019-Jan-27 23:53 C   16 34 35.505460 -16 55 03.62263
 2019-Jan-27 23:54 C   16 34 35.620959 -16 55 04.04427
 2019-Jan-27 23:55 C   16 34 35.736463 -16 55 04.46597
 2019-Jan-27 23:56 C   16 34 35.851970 -16 55 04.88774
 2019-Jan-27 23:57 C   16 34 35.967483 -16 55 05.30958
 2019-Jan-27 23:58 C   16 34 36.082999 -16 55 05.73148
 2019-Jan-27 23:59 C   16 34 36.198519 -16 55 06.15344
 2019-Jan-28 00:00 C   16 34 36.314043 -16 55 06.57547
 2019-Jan-28 00:01 C   16 34 36.429571 -16 55 06.99757
 2019-Jan-28 00:02 C   16 34 36.545103 -16 55 07.41973
 2019-Jan-28 00:03 C   16 34 36.660639 -16 55 07.84195
 2019-Jan-28 00:04 C   16 34 36.776178 -16 55 08.26424
 2019-Jan-28 00:05 C   16 34 36.891721 -16 55 08.68660
 2019-Jan-28 00:06 C   16 34 37.007268 -16 55 09.10902
 2019-Jan-28 00:07 C   16 34 37.122818 -16 55 09.53151
 2019-Jan-28 00:08 C   16 34 37.238371 -16 55 09.95406
 2019-Jan-28 00:09 C   16 34 37.353928 -16 55 10.37668
 2019-Jan-28 00:10 C   16 34 37.469488 -16 55 10.79936
 2019-Jan-28 00:11 N   16 34 37.585051 -16 55 11.22211
 2019-Jan-28 00:12 N   16 34 37.700618 -16 55 11.64492
 2019-Jan-28 00:13 N   16 34 37.816187 -16 55 12.06780
 2019-Jan-28 00:14 N   16 34 37.931759 -16 55 12.49075
 2019-Jan-28 00:15 N   16 34 38.047334 -16 55 12.91376
 2019-Jan-28 00:16 N   16 34 38.162912 -16 55 13.33684
 2019-Jan-28 00:17 N   16 34 38.278493 -16 55 13.75999
 2019-Jan-28 00:18 N   16 34 38.394076 -16 55 14.18320
 2019-Jan-28 00:19 N   16 34 38.509662 -16 55 14.60647
 2019-Jan-28 00:20 N   16 34 38.625250 -16 55 15.02982
 2019-Jan-28 00:21 N   16 34 38.740841 -16 55 15.45323
 2019-Jan-28 00:22 N   16 34 38.856434 -16 55 15.87670
 2019-Jan-28 00:23 N   16 34 38.972029 -16 55 16.30024
 2019-Jan-28 00:24 N   16 34 39.087627 -16 55 16.72385
 2019-Jan-28 00:25 N   16 34 39.203227 -16 55 17.14752
 2019-Jan-28 00:26 N   16 34 39.318828 -16 55 17.57126
 2019-Jan-28 00:27 N   16 34 39.434432 -16 55 17.99507
 2019-Jan-28 00:28 N   16 34 39.550038 -16 55 18.41894
 2019-Jan-28 00:29 N   16 34 39.665645 -16 55 18.84288
 2019-Jan-28 00:30 N   16 34 39.781255 -16 55 19.26689
 2019-Jan-28 00:31 N   16 34 39.896866 -16 55 19.69096
 2019-Jan-28 00:32 N   16 34 40.012478 -16 55 20.11510
 2019-Jan-28 00:33 N   16 34 40.128092 -16 55 20.53931
 2019-Jan-28 00:34 N   16 34 40.243708 -16 55 20.96358
 2019-Jan-28 00:35 N   16 34 40.359324 -16 55 21.38792
 2019-Jan-28 00:36 N   16 34 40.474943 -16 55 21.81232
 2019-Jan-28 00:37 N   16 34 40.590562 -16 55 22.23679
 2019-Jan-28 00:38 N   16 34 40.706183 -16 55 22.66133
 2019-Jan-28 00:39 N   16 34 40.821804 -16 55 23.08594
 2019-Jan-28 00:40 N   16 34 40.937427 -16 55 23.51061
 2019-Jan-28 00:41 N   16 34 41.053051 -16 55 23.93535
 2019-Jan-28 00:42 A   16 34 41.168675 -16 55 24.36015
 2019-Jan-28 00:43 A   16 34 41.284300 -16 55 24.78503
 2019-Jan-28 00:44 A   16 34 41.399926 -16 55 25.20996
 2019-Jan-28 00:45 A   16 34 41.515553 -16 55 25.63497
 2019-Jan-28 00:46 A   16 34 41.631180 -16 55 26.06004
 2019-Jan-28 00:47 A   16 34 41.746807 -16 55 26.48518
 2019-Jan-28 00:48 A   16 34 41.862435 -16 55 26.91039
 2019-Jan-28 00:49 A   16 34 41.978064 -16 55 27.33566
 2019-Jan-28 00:50 A   16 34 42.093692 -16 55 27.76100
 2019-Jan-28 00:51 A   16 34 42.209321 -16 55 28.18640
 2019-Jan-28 00:52 A   16 34 42.324950 -16 55 28.61188
 2019-Jan-28 00:53 A   16 34 42.440579 -16 55 29.03742
 2019-Jan-28 00:54 A   16 34 42.556208 -16 55 29.46302
 2019-Jan-28 00:55 A   16 34 42.671836 -16 55 29.88870
 2019-Jan-28 00:56 A   16 34 42.787465 -16 55 30.31444
 2019-Jan-28 00:57 A   16 34 42.903093 -16 55 30.74024
 2019-Jan-28 00:58 A   16 34 43.018721 -16 55 31.16611
 2019-Jan-28 00:59 A   16 34 43.134348 -16 55 31.59205
 2019-Jan-28 01:00 A   16 34 43.249975 -16 55 32.01806
 2019-Jan-28 01:01 A   16 34 43.365602 -16 55 32.44413
 2019-Jan-28 01:02 A   16 34 43.481228 -16 55 32.87027
 2019-Jan-28 01:03 A   16 34 43.596853 -16 55 33.29648
 2019-Jan-28 01:04 A   16 34 43.712477 -16 55 33.72275
 2019-Jan-28 01:05 A   16 34 43.828100 -16 55 34.14909
 2019-Jan-28 01:06 A   16 34 43.943723 -16 55 34.57550
 2019-Jan-28 01:07 A   16 34 44.059344 -16 55 35.00197
 2019-Jan-28 01:08 A   16 34 44.174964 -16 55 35.42851
 2019-Jan-28 01:09 A   16 34 44.290583 -16 55 35.85512
 2019-Jan-28 01:10 A   16 34 44.406201 -16 55 36.28179
 2019-Jan-28 01:11 A   16 34 44.521818 -16 55 36.70853
 2019-Jan-28 01:12 A   16 34 44.637433 -16 55 37.13533
 2019-Jan-28 01:13 A   16 34 44.753047 -16 55 37.56220
 2019-Jan-28 01:14 A   16 34 44.868659 -16 55 37.98914
 2019-Jan-28 01:15     16 34 44.984269 -16 55 38.41614
 2019-Jan-28 01:16     16 34 45.099878 -16 55 38.84321
 2019-Jan-28 01:17     16 34 45.215485 -16 55 39.27035
 2019-Jan-28 01:18     16 34 45.331090 -16 55 39.69755
 2019-Jan-28 01:19     16 34 45.446694 -16 55 40.12482
 2019-Jan-28 01:20     16 34 45.562295 -16 55 40.55216
 2019-Jan-28 01:21     16 34 45.677894 -16 55 40.97956
 2019-Jan-28 01:22     16 34 45.793491 -16 55 41.40703
 2019-Jan-28 01:23     16 34 45.909086 -16 55 41.83456
 2019-Jan-28 01:24     16 34 46.024679 -16 55 42.26216
 2019-Jan-28 01:25     16 34 46.140269 -16 55 42.68982
 2019-Jan-28 01:26     16 34 46.255857 -16 55 43.11755
 2019-Jan-28 01:27     16 34 46.371442 -16 55 43.54535
 2019-Jan-28 01:28     16 34 46.487025 -16 55 43.97321
 2019-Jan-28 01:29     16 34 46.602605 -16 55 44.40114
 2019-Jan-28 01:30     16 34 46.718182 -16 55 44.82914
 2019-Jan-28 01:31     16 34 46.833756 -16 55 45.25720
 2019-Jan-28 01:32     16 34 46.949328 -16 55 45.68532
 2019-Jan-28 01:33     16 34 47.064897 -16 55 46.11351
 2019-Jan-28 01:34     16 34 47.180462 -16 55 46.54177
 2019-Jan-28 01:35     16 34 47.296025 -16 55 46.97009
 2019-Jan-28 01:36     16 34 47.411584 -16 55 47.39847
 2019-Jan-28 01:37     16 34 47.527140 -16 55 47.82693
 2019-Jan-28 01:38     16 34 47.642693 -16 55 48.25544
 2019-Jan-28 01:39     16 34 47.758242 -16 55 48.68402
 2019-Jan-28 01:40     16 34 47.873788 -16 55 49.11267
 2019-Jan-28 01:41     16 34 47.989330 -16 55 49.54138
 2019-Jan-28 01:42     16 34 48.104869 -16 55 49.97016
 2019-Jan-28 01:43     16 34 48.220404 -16 55 50.39900
 2019-Jan-28 01:44     16 34 48.335935 -16 55 50.82791
 2019-Jan-28 01:45     16 34 48.451462 -16 55 51.25688
 2019-Jan-28 01:46     16 34 48.566986 -16 55 51.68592
 2019-Jan-28 01:47     16 34 48.682505 -16 55 52.11502
 2019-Jan-28 01:48     16 34 48.798021 -16 55 52.54418
 2019-Jan-28 01:49     16 34 48.913532 -16 55 52.97341
 2019-Jan-28 01:50     16 34 49.029039 -16 55 53.40270
 2019-Jan-28 01:51     16 34 49.144542 -16 55 53.83206
 2019-Jan-28 01:52     16 34 49.260040 -16 55 54.26148
 2019-Jan-28 01:53     16 34 49.375534 -16 55 54.69097
 2019-Jan-28 01:54     16 34 49.491024 -16 55 55.12052
 2019-Jan-28 01:55     16 34 49.606509 -16 55 55.55013
